{"type": "FeatureCollection", "features": [ {"type": "Feature", "properties": {"norad_id": 35650, "name": "COSMOS 2251 DEB", "group": "cosmos-2251-debris", "lat": 39.934288196550455, "lon": -173.4096048725668, "alt_km": 611.027429542798, "timestamp": "2025-12-11T22:43:47.667084+00:00", "meta": {"OBJECT_NAME": "COSMOS 2251 DEB", "OBJECT_ID": "1993-036ANR", "EPOCH": "2025-12-11T13:04:36.004224", "MEAN_MOTION": 14.83581418, "ECCENTRICITY": 0.00145271, "INCLINATION": 74.0463, "RA_OF_ASC_NODE": 21.242, "ARG_OF_PERICENTER": 69.1098, "MEAN_ANOMALY": 81.4479, "EPHEMERIS_TYPE": 0, "CLASSIFICATION_TYPE": "U", "NORAD_CAT_ID": 35650, "ELEMENT_SET_NO": 999, "REV_AT_EPOCH": 87616, "BSTAR": 0.0032878905, "MEAN_MOTION_DOT": 0.00027227, "MEAN_MOTION_DDOT": 0}, "tle": {"line1": "1 35650U 93036ANR 25345.54486116  .00027227  00000+0  32879-2 0  9994", "line2": "2 35650  74.0463  21.2420 0014527  69.1098  81.4479 14.83581418876162"}}, "geometry": {"type": "Point", "coordinates": [-173.4096048725668, 39.934288196550455]}}, {"type": "Feature", "properties": {"norad_id": 35660, "name": "COSMOS 2251 DEB", "group": "cosmos-2251-debris", "lat": 8.826474344050318, "lon": -47.82714760142272, "alt_km": 732.4051147298987, "timestamp": "2025-12-11T22:43:47.667094+00:00", "meta": {"OBJECT_NAME": "COSMOS 2251 DEB", "OBJECT_ID": "1993-036APB", "EPOCH": "2025-12-10T03:25:35.080032", "MEAN_MOTION": 14.49912866, "ECCENTRICITY": 0.00186346, "INCLINATION": 74.0397, "RA_OF_ASC_NODE": 138.1054, "ARG_OF_PERICENTER": 287.2761, "MEAN_ANOMALY": 189.4863, "EPHEMERIS_TYPE": 0, "CLASSIFICATION_TYPE": "U", "NORAD_CAT_ID": 35660, "ELEMENT_SET_NO": 999, "REV_AT_EPOCH": 65833, "BSTAR": 0.00068790313, "MEAN_MOTION_DOT": 2.638e-05, "MEAN_MOTION_DDOT": 0}, "tle": {"line1": "1 35660U 93036APB 25344.14276713  .00002638  00000+0  68790-3 0  9991", "line2": "2 35660  74.0397 138.1054 0018634 287.2761 189.4863 14.49912866658333"}}, "geometry": {"type": "Point", "coordinates": [-47.82714760142272, 8.826474344050318]}}, {"type": "Feature", "properties": {"norad_id": 35661, "name": "COSMOS 2251 DEB", "group": "cosmos-2251-debris", "lat": 58.54833046605553, "lon": 109.26294115121878, "alt_km": 636.0773886440602, "timestamp": "2025-12-11T22:43:47.667104+00:00", "meta": {"OBJECT_NAME": "COSMOS 2251 DEB", "OBJECT_ID": "1993-036APC", "EPOCH": "2025-12-09T17:08:36.134304", "MEAN_MOTION": 14.86479367, "ECCENTRICITY": 0.00883269, "INCLINATION": 74.0134, "RA_OF_ASC_NODE": 85.7599, "ARG_OF_PERICENTER": 190.7537, "MEAN_ANOMALY": 169.1759, "EPHEMERIS_TYPE": 0, "CLASSIFICATION_TYPE": "U", "NORAD_CAT_ID": 35661, "ELEMENT_SET_NO": 999, "REV_AT_EPOCH": 87823, "BSTAR": 0.0014984263, "MEAN_MOTION_DOT": 0.00014219, "MEAN_MOTION_DDOT": 0}, "tle": {"line1": "1 35661U 93036APC 25343.71430711  .00014219  00000+0  14984-2 0  9997", "line2": "2 35661  74.0134  85.7599 0088326 190.7537 169.1759 14.86479367878235"}}, "geometry": {"type": "Point", "coordinates": [109.26294115121878, 58.54833046605553]}}, {"type": "Feature", "properties": {"norad_id": 35663, "name": "COSMOS 2251 DEB", "group": "cosmos-2251-debris", "lat": 8.27737488202375, "lon": 128.58429487466745, "alt_km": 680.978867557471, "timestamp": "2025-12-11T22:43:47.667114+00:00", "meta": {"OBJECT_NAME": "COSMOS 2251 DEB", "OBJECT_ID": "1993-036APE", "EPOCH": "2025-12-11T09:35:06.808704", "MEAN_MOTION": 14.65634911, "ECCENTRICITY": 0.00064942, "INCLINATION": 74.0186, "RA_OF_ASC_NODE": 127.25, "ARG_OF_PERICENTER": 200.8326, "MEAN_ANOMALY": 159.2579, "EPHEMERIS_TYPE": 0, "CLASSIFICATION_TYPE": "U", "NORAD_CAT_ID": 35663, "ELEMENT_SET_NO": 999, "REV_AT_EPOCH": 73362, "BSTAR": 0.0032330687, "MEAN_MOTION_DOT": 0.00017595, "MEAN_MOTION_DDOT": 0}, "tle": {"line1": "1 35663U 93036APE 25345.39938436  .00017595  00000+0  32331-2 0  9998", "line2": "2 35663  74.0186 127.2500 0006494 200.8326 159.2579 14.65634911733621"}}, "geometry": {"type": "Point", "coordinates": [128.58429487466745, 8.27737488202375]}}, {"type": "Feature", "properties": {"norad_id": 35667, "name": "COSMOS 2251 DEB", "group": "cosmos-2251-debris", "lat": 66.77547866002604, "lon": -176.60271527612852, "alt_km": 695.1643856716937, "timestamp": "2025-12-11T22:43:47.667124+00:00", "meta": {"OBJECT_NAME": "COSMOS 2251 DEB", "OBJECT_ID": "1993-036APJ", "EPOCH": "2025-12-11T04:18:22.945536", "MEAN_MOTION": 14.59989469, "ECCENTRICITY": 0.00198295, "INCLINATION": 74.0549, "RA_OF_ASC_NODE": 143.0806, "ARG_OF_PERICENTER": 203.8334, "MEAN_ANOMALY": 156.1916, "EPHEMERIS_TYPE": 0, "CLASSIFICATION_TYPE": "U", "NORAD_CAT_ID": 35667, "ELEMENT_SET_NO": 999, "REV_AT_EPOCH": 70780, "BSTAR": 0.0016781081, "MEAN_MOTION_DOT": 8.053e-05, "MEAN_MOTION_DDOT": 0}, "tle": {"line1": "1 35667U 93036APJ 25345.17943224  .00008053  00000+0  16781-2 0  9999", "line2": "2 35667  74.0549 143.0806 0019829 203.8334 156.1916 14.59989469707807"}}, "geometry": {"type": "Point", "coordinates": [-176.60271527612852, 66.77547866002604]}}, {"type": "Feature", "properties": {"norad_id": 35668, "name": "COSMOS 2251 DEB", "group": "cosmos-2251-debris", "lat": 4.328248825484947, "lon": 40.80317463312233, "alt_km": 734.1069552678546, "timestamp": "2025-12-11T22:43:47.667134+00:00", "meta": {"OBJECT_NAME": "COSMOS 2251 DEB", "OBJECT_ID": "1993-036APK", "EPOCH": "2025-12-10T09:50:46.743936", "MEAN_MOTION": 14.63977041, "ECCENTRICITY": 0.00831886, "INCLINATION": 74.0449, "RA_OF_ASC_NODE": 224.9926, "ARG_OF_PERICENTER": 330.6481, "MEAN_ANOMALY": 29.0026, "EPHEMERIS_TYPE": 0, "CLASSIFICATION_TYPE": "U", "NORAD_CAT_ID": 35668, "ELEMENT_SET_NO": 999, "REV_AT_EPOCH": 87613, "BSTAR": 0.00039699898, "MEAN_MOTION_DOT": 2.154e-05, "MEAN_MOTION_DDOT": 0}, "tle": {"line1": "1 35668U 93036APK 25344.41026324  .00002154  00000+0  39700-3 0  9992", "line2": "2 35668  74.0449 224.9926 0083188 330.6481  29.0026 14.63977041876131"}}, "geometry": {"type": "Point", "coordinates": [40.80317463312233, 4.328248825484947]}}, {"type": "Feature", "properties": {"norad_id": 35669, "name": "COSMOS 2251 DEB", "group": "cosmos-2251-debris", "lat": 71.854435587857, "lon": -81.35802868511958, "alt_km": 1325.3442822863099, "timestamp": "2025-12-11T22:43:47.667144+00:00", "meta": {"OBJECT_NAME": "COSMOS 2251 DEB", "OBJECT_ID": "1993-036APL", "EPOCH": "2025-12-10T17:55:05.054592", "MEAN_MOTION": 13.57151778, "ECCENTRICITY": 0.03880721, "INCLINATION": 73.8635, "RA_OF_ASC_NODE": 162.6479, "ARG_OF_PERICENTER": 274.7966, "MEAN_ANOMALY": 80.8943, "EPHEMERIS_TYPE": 0, "CLASSIFICATION_TYPE": "U", "NORAD_CAT_ID": 35669, "ELEMENT_SET_NO": 999, "REV_AT_EPOCH": 60762, "BSTAR": 0.0012765304, "MEAN_MOTION_DOT": 1.459e-05, "MEAN_MOTION_DDOT": 0}, "tle": {"line1": "1 35669U 93036APL 25344.74658628  .00001459  00000+0  12765-2 0  9995", "line2": "2 35669  73.8635 162.6479 0388072 274.7966  80.8943 13.57151778607625"}}, "geometry": {"type": "Point", "coordinates": [-81.35802868511958, 71.854435587857]}}, {"type": "Feature", "properties": {"norad_id": 35670, "name": "COSMOS 2251 DEB", "group": "cosmos-2251-debris", "lat": 17.030781342879287, "lon": 71.1788107602532, "alt_km": 560.3661706001321, "timestamp": "2025-12-11T22:43:47.667154+00:00", "meta": {"OBJECT_NAME": "COSMOS 2251 DEB", "OBJECT_ID": "1993-036APM", "EPOCH": "2025-12-08T12:40:44.894496", "MEAN_MOTION": 14.93746131, "ECCENTRICITY": 0.00374415, "INCLINATION": 73.8955, "RA_OF_ASC_NODE": 73.039, "ARG_OF_PERICENTER": 35.0218, "MEAN_ANOMALY": 325.3416, "EPHEMERIS_TYPE": 0, "CLASSIFICATION_TYPE": "U", "NORAD_CAT_ID": 35670, "ELEMENT_SET_NO": 999, "REV_AT_EPOCH": 87664, "BSTAR": 0.0018203888, "MEAN_MOTION_DOT": 0.00019569, "MEAN_MOTION_DDOT": 0}, "tle": {"line1": "1 35670U 93036APM 25342.52829739  .00019569  00000+0  18204-2 0  9999", "line2": "2 35670  73.8955  73.0390 0037441  35.0218 325.3416 14.93746131876644"}}, "geometry": {"type": "Point", "coordinates": [71.1788107602532, 17.030781342879287]}}, {"type": "Feature", "properties": {"norad_id": 35671, "name": "COSMOS 2251 DEB", "group": "cosmos-2251-debris", "lat": -44.2508783942891, "lon": -82.98499218918575, "alt_km": 711.4012131962272, "timestamp": "2025-12-11T22:43:47.667165+00:00", "meta": {"OBJECT_NAME": "COSMOS 2251 DEB", "OBJECT_ID": "1993-036APN", "EPOCH": "2025-12-09T13:24:21.306816", "MEAN_MOTION": 14.48340433, "ECCENTRICITY": 0.004149, "INCLINATION": 74.0178, "RA_OF_ASC_NODE": 85.2791, "ARG_OF_PERICENTER": 259.861, "MEAN_ANOMALY": 118.1508, "EPHEMERIS_TYPE": 0, "CLASSIFICATION_TYPE": "U", "NORAD_CAT_ID": 35671, "ELEMENT_SET_NO": 999, "REV_AT_EPOCH": 86717, "BSTAR": 0.00041701, "MEAN_MOTION_DOT": 1.548e-05, "MEAN_MOTION_DDOT": 0}, "tle": {"line1": "1 35671U 93036APN 25343.55857994  .00001548  00000+0  41701-3 0  9995", "line2": "2 35671  74.0178  85.2791 0041490 259.8610 118.1508 14.48340433867179"}}, "geometry": {"type": "Point", "coordinates": [-82.98499218918575, -44.2508783942891]}}, {"type": "Feature", "properties": {"norad_id": 35674, "name": "COSMOS 2251 DEB", "group": "cosmos-2251-debris", "lat": 73.75330211407086, "lon": 36.736870129679396, "alt_km": 696.7634379263036, "timestamp": "2025-12-11T22:43:47.667175+00:00", "meta": {"OBJECT_NAME": "COSMOS 2251 DEB", "OBJECT_ID": "1993-036APR", "EPOCH": "2025-12-10T14:57:59.522112", "MEAN_MOTION": 14.54148756, "ECCENTRICITY": 0.0096045, "INCLINATION": 74.0605, "RA_OF_ASC_NODE": 320.5053, "ARG_OF_PERICENTER": 5.7735, "MEAN_ANOMALY": 354.451, "EPHEMERIS_TYPE": 0, "CLASSIFICATION_TYPE": "U", "NORAD_CAT_ID": 35674, "ELEMENT_SET_NO": 999, "REV_AT_EPOCH": 86080, "BSTAR": 0.0032344, "MEAN_MOTION_DOT": 0.00014545, "MEAN_MOTION_DDOT": 0}, "tle": {"line1": "1 35674U 93036APR 25344.62360558  .00014545  00000+0  32344-2 0  9995", "line2": "2 35674  74.0605 320.5053 0096045   5.7735 354.4510 14.54148756860807"}}, "geometry": {"type": "Point", "coordinates": [36.736870129679396, 73.75330211407086]}}]}